[{"OBJECT_NAME":"CUBESX-HSE 3 (RS42S)","OBJECT_ID":"2023-091N","EPOCH":"2026-03-09T22:57:25.321248","MEAN_MOTION":15.286147,"ECCENTRICITY":0.00127191,"INCLINATION":97.5203,"RA_OF_ASC_NODE":133.4295,"ARG_OF_PERICENTER":86.5376,"MEAN_ANOMALY":273.7318,"EPHEMERIS_TYPE":0,"CLASSIFICATION_TYPE":"U","NORAD_CAT_ID":57178,"ELEMENT_SET_NO":999,"REV_AT_EPOCH":14925,"BSTAR":0.00059055694,"MEAN_MOTION_DOT":0.00016417,"MEAN_MOTION_DDOT":0},{"OBJECT_NAME":"STARLINK-35986","OBJECT_ID":"2025-281F","EPOCH":"2026-03-09T03:21:20.691648","MEAN_MOTION":15.27597385,"ECCENTRICITY":0.0001048,"INCLINATION":43.0001,"RA_OF_ASC_NODE":346.3912,"ARG_OF_PERICENTER":278.0103,"MEAN_ANOMALY":82.0629,"EPHEMERIS_TYPE":0,"CLASSIFICATION_TYPE":"U","NORAD_CAT_ID":66853,"ELEMENT_SET_NO":999,"REV_AT_EPOCH":1610,"BSTAR":0.00095032814,"MEAN_MOTION_DOT":0.00025995,"MEAN_MOTION_DDOT":0}]
